EVENT_NAME: 202001241755
EVENT_ID: 8178
EVENT_DATE_YYYYMMDD: 2020/01/24
EVENT_TIME_HHMMSS: 17:55:11.00000
EVENT_LATITUDE_DEGREE: 38.3593
EVENT_LONGITUDE_DEGREE: 39.063
EVENT_DEPTH_KM: 8.06
HYPOCENTER_REFERENCE: AFAD
MAGNITUDE_W: 6.8
MAGNITUDE_W_REFERENCE: AFAD
MAGNITUDE_L: 
MAGNITUDE_L_REFERENCE: 
FOCAL_MECHANISM: 
NETWORK: TK
STATION_CODE: 2308
STATION_NAME: 
STATION_LATITUDE_DEGREE: 38.45063
STATION_LONGITUDE_DEGREE: 39.3102
STATION_ELEVATION_M: 1248.0
LOCATION: Elazig_Sivrice_Turkiye
SENSOR_DEPTH_M: 
VS30_M/S: 450
SITE_CLASSIFICATION_EC8: B
MORPHOLOGIC_CLASSIFICATION: 
EPICENTRAL_DISTANCE_KM: 23.81
EARTHQUAKE_BACKAZIMUTH_DEGREE: 
DATE_TIME_FIRST_SAMPLE_YYYYMMDD_HHMMSS: 2020/01/24 17:54:45.33222000
DATE_TIME_FIRST_SAMPLE_PRECISION: millisecond
SAMPLING_INTERVAL_S: 0.01
NDATA: 5551
DURATION_S: 
STREAM: HNE
UNITS: cm/sn2
INSTRUMENT: sensor = CMG-5T/GURALP | digitizer = 
INSTRUMENT_ANALOG/DIGITAL: 
INSTRUMENTAL_FREQUENCY_HZ: 
INSTRUMENTAL_DAMPING: 
FULL_SCALE_G: 
N_BIT_DIGITAL_CONVERTER: 
PGA_CM/S^2: 292.803
TIME_PGA_S: 
BASELINE_CORRECTION: BASELINE REMOVED
FILTER_TYPE: BUTTERWORTH
FILTER_ORDER: 2
LOW_CUT_FREQUENCY_HZ: 0.1
HIGH_CUT_FREQUENCY_HZ: 25.0
LATE/NORMAL_TRIGGERED: NT
DATABASE_VERSION: 
HEADER_FORMAT: DYNA 1.2
DATA_TYPE: Acceleration
PROCESSING: Manual Paolucci et al., 2011
DATA_TIMESTAMP_YYYYMMDD_HHMMSS: 
DATA_LICENSE: U (unknown license)
DATA_CITATION: Turkish Accelerometric Archive v 1.0 - Disaster And Emergency Management Presidency, Earthquake Department
DATA_CREATOR: AFAD
ORIGINAL_DATA_MEDIATOR_CITATION: : AFAD - Disaster And Emergency Management Presidency
ORIGINAL_DATA_MEDIATOR: AFAD PROCESS SERVICE
ORIGINAL_DATA_CREATOR_CITATION: AFAD PROCESS SERVICE
ORIGINAL_DATA_CREATOR: network: TK
USER1: GuestUser
USER2: 
USER3: 
USER4: 
USER5: 
0.000000
0.005477
0.010929
0.010890
0.010851
0.010810
0.010767
0.010722
0.010676
0.010629
0.010579
0.010528
0.010474
0.010419
0.010361
0.010301
0.010239
0.010175
0.010108
0.010038
0.009966
0.009891
0.009812
0.009731
0.009647
0.009559
0.009467
0.009372
0.009273
0.009170
0.009063
0.008952
0.008836
0.008716
0.008591
0.008462
0.008327
0.008188
0.008043
0.007892
0.007736
0.007574
0.007406
0.007233
0.007053
0.006867
0.006674
0.006475
0.006269
0.006056
0.005836
0.005610
0.005376
0.005135
0.004888
0.004634
0.004371
0.004100
0.003822
0.003538
0.003246
0.002946
0.002638
0.002322
0.001999
0.001666
0.001324
0.000977
0.000628
0.000270
-0.000098
-0.000472
-0.000852
-0.001241
-0.001643
-0.002050
-0.002458
-0.002876
-0.003301
-0.003728
-0.004159
-0.004597
-0.005045
-0.005504
-0.005965
-0.006424
-0.006890
-0.007366
-0.007848
-0.008330
-0.008812
-0.009296
-0.009783
-0.010268
-0.010747
-0.011227
-0.011712
-0.012209
-0.012722
-0.013236
-0.013733
-0.014233
-0.014740
-0.015224
-0.015689
-0.016177
-0.016694
-0.017192
-0.017627
-0.018031
-0.018473
-0.018948
-0.019401
-0.019846
-0.020313
-0.020763
-0.021170
-0.021580
-0.022019
-0.022478
-0.022917
-0.023273
-0.023547
-0.023819
-0.024126
-0.024445
-0.024763
-0.025059
-0.025325
-0.025589
-0.025871
-0.026143
-0.026373
-0.026561
-0.026737
-0.026905
-0.027040
-0.027112
-0.027120
-0.027138
-0.027226
-0.027290
-0.027277
-0.027275
-0.027262
-0.027181
-0.027125
-0.027116
-0.027009
-0.026782
-0.026604
-0.026577
-0.026506
-0.026166
-0.025732
-0.025434
-0.025102
-0.024716
-0.024510
-0.024284
-0.023779
-0.023206
-0.022682
-0.022132
-0.021620
-0.021185
-0.020801
-0.020379
-0.019733
-0.018976
-0.018372
-0.017771
-0.016947
-0.015957
-0.014897
-0.013920
-0.013130
-0.012355
-0.011574
-0.010877
-0.010031
-0.009005
-0.008104
-0.007295
-0.006433
-0.005608
-0.004750
-0.003716
-0.002492
-0.001000
0.000599
0.001814
0.002568
0.003350
0.004504
0.006032
0.007668
0.008901
0.009623
0.010431
0.011695
0.013132
0.014483
0.015759
0.017096
0.018730
0.020388
0.021301
0.021737
0.022794
0.024335
0.025448
0.026138
0.026889
0.027900
0.028938
0.029727
0.030791
0.032400
0.033842
0.035210
0.036907
0.038268
0.039255
0.040509
0.041670
0.042366
0.042837
0.043175
0.043770
0.044906
0.045884
0.046438
0.047312
0.048512
0.049468
0.050356
0.051158
0.051422
0.051632
0.052410
0.053560
0.055002
0.056347
0.056879
0.057120
0.057718
0.058295
0.058836
0.059333
0.059391
0.059465
0.059676
0.059275
0.058723
0.058661
0.058529
0.058593
0.059509
0.060492
0.060961
0.061119
0.060661
0.059799
0.059216
0.058515
0.057658
0.057484
0.057324
0.056145
0.054949
0.054737
0.054896
0.054669
0.053777
0.052456
0.051488
0.050932
0.049128
0.047697
0.048060
0.048423
0.048027
0.047283
0.047159
0.047442
0.047058
0.046167
0.046017
0.046617
0.046500
0.045155
0.043917
0.043657
0.043569
0.043107
0.042962
0.043431
0.043833
0.043849
0.043665
0.043279
0.042889
0.042635
0.042138
0.041330
0.040388
0.039637
0.040102
0.041589
0.042103
0.041102
0.039936
0.039440
0.039375
0.039132
0.038843
0.039190
0.039657
0.039295
0.038337
0.037390
0.036866
0.037019
0.037590
0.038105
0.038037
0.037098
0.036031
0.035543
0.035069
0.034338
0.034062
0.034125
0.033806
0.033399
0.033464
0.033933
0.034435
0.034469
0.034157
0.034073
0.033805
0.032569
0.030485
0.028312
0.026044
0.021466
0.012023
-0.003101
-0.025215
-0.055591
-0.091856
-0.128839
-0.159899
-0.177879
-0.179971
-0.169334
-0.149215
-0.118930
-0.081690
-0.050617
-0.028816
0.000754
0.036574
0.048527
0.039575
0.052400
0.082713
0.074446
0.032191
0.029276
0.075562
0.102060
0.092797
0.098432
0.120810
0.117704
0.100923
0.096954
0.058848
-0.052523
-0.190915
-0.329274
-0.488664
-0.618943
-0.655460
-0.671994
-0.749842
-0.783644
-0.650848
-0.420449
-0.193436
0.019667
0.137468
0.055166
-0.097447
-0.086564
0.065458
0.172866
0.230566
0.329448
0.387520
0.301437
0.216960
0.369524
0.718615
0.941180
0.842678
0.579336
0.317695
-0.014904
-0.398856
-0.590534
-0.589710
-0.706491
-0.974804
-1.104364
-1.065120
-1.069886
-1.088049
-0.976739
-0.814098
-0.655162
-0.408439
-0.183720
-0.124641
0.076427
0.671459
1.149948
0.956547
0.412286
0.079436
-0.058571
-0.075064
0.344908
1.246814
2.120900
2.584742
2.685342
2.486399
1.952277
1.230279
0.567493
-0.064063
-0.850259
-1.584100
-1.694140
-1.077248
-0.485474
-0.694160
-1.619454
-2.635040
-3.311498
-3.388535
-2.580006
-0.988683
0.600899
1.210292
0.509543
-0.771332
-1.484098
-1.263432
-0.717511
-0.394103
-0.164246
0.353759
1.313912
2.479422
3.246068
3.099501
2.173558
1.161724
0.605761
0.449410
0.489945
0.777751
1.144121
1.079229
0.397366
-0.623735
-1.617993
-2.308390
-2.711573
-3.053457
-3.208462
-2.802947
-1.972920
-1.251090
-0.817943
-0.606751
-0.759679
-1.290001
-1.718992
-1.484752
-0.486856
0.792377
1.638551
1.770057
1.560324
1.466210
1.691324
2.440695
3.703599
4.842603
5.091788
4.211753
2.468635
0.467402
-1.124710
-2.015080
-2.208991
-1.747620
-0.984198
-0.624401
-1.026864
-1.859221
-2.622748
-3.085818
-2.991748
-1.861230
0.162567
1.616473
1.101019
-0.769066
-2.154511
-2.425053
-2.248878
-1.820636
-0.892094
0.024270
0.340529
0.542630
1.213632
1.908982
1.840853
0.823516
-0.323440
0.101756
2.963518
6.555495
8.138654
6.956168
4.214595
1.104841
-1.324619
-1.973347
-1.274991
-1.178635
-2.600589
-4.547793
-5.449491
-4.264748
-1.414850
1.066150
1.648290
0.855393
-0.467479
-2.164684
-3.010027
-1.455521
1.227332
2.177340
0.865644
-1.265583
-3.281786
-4.299660
-3.251481
-1.063628
-0.228538
-1.460053
-3.299311
-4.493736
-4.553029
-3.079228
-0.448364
2.228033
4.786210
7.355340
8.589385
7.561636
5.619208
4.512937
4.524051
4.286085
2.343021
-0.582326
-3.158570
-6.045689
-9.377840
-10.904656
-9.796273
-8.096884
-6.465735
-3.376412
0.561126
2.706809
2.250670
-0.115162
-3.459275
-5.583271
-4.962496
-3.026041
-0.691787
3.775409
9.632075
11.611208
7.384047
1.613662
-1.171883
-1.660732
-1.080315
2.062686
7.972896
12.883513
12.860817
8.370035
3.434141
1.328549
2.366307
4.582857
4.850604
0.693084
-6.580225
-11.924362
-12.240985
-9.636845
-6.938094
-4.262741
-2.344032
-3.887031
-8.701564
-12.477906
-12.864897
-11.752273
-10.300420
-7.474755
-3.480274
1.051541
7.319610
14.557185
17.618311
13.200916
5.146552
0.206054
1.010589
5.107021
8.940568
10.735474
10.209929
7.877385
5.218933
3.401033
1.391261
-2.035455
-4.924790
-4.408726
-1.264437
1.737297
4.295604
6.752719
6.304441
1.365704
-3.311936
-3.096503
-0.994650
-1.765610
-3.450773
-1.761352
1.417895
1.424488
-0.537811
0.294111
4.561166
9.518694
13.454778
15.802731
16.363790
15.620200
14.073393
11.072424
4.845078
-4.954088
-14.612840
-19.134586
-17.642646
-12.871808
-7.190651
-2.784835
-2.416633
-5.979896
-9.278567
-9.007221
-5.958690
-1.873518
2.977677
7.707365
9.848633
7.942589
3.722352
0.880008
1.274475
3.554632
6.486599
10.532495
14.893199
17.166675
16.424228
12.634373
5.020599
-4.375811
-9.577126
-7.737626
-2.352542
1.855168
1.127085
-7.080106
-19.519054
-27.663083
-26.689815
-19.718110
-12.952160
-10.076064
-10.817271
-12.964886
-14.562766
-14.517699
-13.260522
-12.130278
-11.233748
-10.617027
-11.798894
-13.728213
-10.782579
-0.132538
12.004204
17.075222
14.326668
8.526055
2.524779
-1.999993
-2.776977
-0.221020
2.681777
4.679692
6.745141
9.142863
10.759338
10.466635
7.923912
4.715018
4.270970
7.694713
11.654767
13.583450
14.922810
16.546277
16.401711
13.677006
10.577761
8.910440
7.909082
6.191329
3.671105
0.575011
-3.091290
-6.790953
-9.829702
-11.155206
-9.939831
-8.662327
-11.021077
-15.601617
-17.648627
-15.785766
-12.547391
-10.742164
-9.844117
-5.838822
1.801873
6.615680
4.075580
-1.126380
-3.018422
-4.558552
-10.965570
-19.589034
-26.599024
-32.431992
-35.138546
-33.513898
-35.404428
-47.992934
-63.559711
-67.181250
-56.781938
-44.105489
-36.911767
-33.218331
-28.457768
-16.603335
3.405715
19.297362
22.086445
20.928867
25.478687
31.882077
34.435787
36.686776
46.283991
63.206675
79.100284
86.259246
79.873539
58.019261
26.821578
0.110418
-11.386741
-10.599147
-8.946104
-9.150017
-3.039381
11.855109
27.325743
38.409412
47.926610
56.204982
58.780031
51.210207
29.479318
-6.031393
-45.502896
-76.395915
-93.867668
-103.046643
-112.865937
-123.429577
-123.784987
-111.857677
-101.615578
-98.817812
-93.512332
-81.493859
-66.206167
-45.831991
-19.344496
8.383157
33.392217
50.282857
49.480058
28.013002
0.405358
-9.997719
-2.127167
-2.874965
-22.600153
-41.128414
-48.181477
-49.177788
-43.332735
-32.738648
-21.820614
-1.880020
31.369342
63.025039
80.265040
87.865172
95.127669
99.630674
95.158248
87.490344
82.963646
72.921324
48.139926
15.055537
-11.976366
-24.249564
-22.217512
-11.442960
1.437492
10.144966
12.402250
13.710648
23.182337
42.960907
61.527792
63.086550
47.069665
28.394222
15.049176
-1.215160
-25.020023
-40.647115
-32.520124
-13.239207
-5.131370
-5.898407
-2.417854
-0.069828
-9.956713
-26.360794
-35.617677
-34.320170
-31.890438
-37.426851
-46.695289
-49.071225
-41.385870
-28.907017
-21.231404
-24.137308
-31.355032
-32.271293
-22.900664
-5.120454
18.163354
45.884154
73.889324
94.074698
107.597177
121.995591
135.456728
143.080723
146.309295
149.251474
157.504798
172.037434
183.295374
183.640861
177.397067
173.253376
175.567913
183.133194
192.882377
201.987651
205.036110
197.364061
183.027793
170.960151
164.535956
160.002265
152.727796
142.666908
132.317383
119.802115
101.488433
83.066026
75.238586
75.701314
70.786919
56.948269
45.656201
44.049503
44.209093
38.090080
28.722941
20.312603
12.292670
2.469511
-13.041495
-36.445074
-66.090248
-99.378167
-130.607421
-153.784570
-171.915916
-193.084892
-218.685510
-241.342697
-253.855242
-258.439712
-262.219654
-268.072166
-276.850290
-287.524234
-292.803364
-287.171529
-275.211184
-265.689549
-261.525975
-254.855126
-236.794576
-214.450696
-202.779937
-201.491558
-199.114288
-191.388510
-181.232590
-172.961260
-170.664131
-169.959139
-158.970132
-138.296674
-123.618834
-119.300898
-111.154299
-93.016530
-75.452498
-63.428385
-50.989234
-35.500645
-15.286697
13.152329
42.210813
59.831800
69.704371
82.046940
94.800812
100.098468
97.394959
91.391363
83.526445
73.711873
66.291103
64.011077
64.516328
66.527175
66.526859
58.521131
45.565937
34.998515
26.149099
17.350230
12.420589
12.679628
13.865624
10.962869
3.297707
-1.049847
7.526571
26.646279
46.623324
63.987063
81.314911
100.887503
121.644934
139.383908
151.268236
157.672686
158.152459
149.920524
131.465104
106.154945
81.216179
62.209297
47.777678
31.259532
10.895694
-6.158586
-15.890306
-24.699860
-38.212590
-52.166886
-61.612218
-71.843718
-87.917042
-99.937465
-96.121685
-81.414018
-68.015056
-59.925294
-56.451060
-58.989301
-66.218481
-71.470104
-73.337412
-77.688856
-82.924649
-80.553099
-71.315952
-63.165335
-57.552612
-48.696864
-31.477387
-5.472705
25.820117
56.210215
79.903704
96.362389
106.122414
104.430813
90.943357
77.400383
72.632659
72.262324
72.108445
76.171948
85.512090
93.645830
95.443066
90.055457
78.066012
63.278001
51.180393
43.644509
40.981389
44.519468
53.879937
66.623682
78.188570
82.222153
77.141635
68.070518
58.686202
47.710122
33.517431
17.388733
3.970577
-1.628778
-0.006461
4.004439
9.197473
15.269372
17.127029
12.412002
5.768150
0.617682
-1.844887
2.069062
13.691911
27.767371
37.443745
38.383235
29.762669
15.529142
2.611321
-3.238484
-0.708117
5.573588
9.026558
7.838619
5.092520
3.779383
3.010280
-1.306748
-9.561661
-16.267097
-18.931724
-20.262163
-20.491817
-17.940255
-13.998362
-10.841215
-8.940863
-7.550238
-4.362156
2.428429
11.240142
19.655922
27.847829
36.121496
42.155206
44.143200
43.205124
39.361495
29.372567
12.774655
-4.149410
-15.395745
-21.750932
-25.708202
-26.611077
-25.527212
-27.790152
-37.570015
-54.463847
-73.618911
-86.351764
-86.131264
-75.862960
-64.300402
-57.073242
-56.112846
-62.741945
-76.076063
-93.516862
-113.847723
-133.953134
-145.701464
-141.555774
-121.137776
-92.294439
-65.417572
-44.900979
-30.881931
-26.113079
-30.706098
-36.924173
-37.629619
-31.704396
-19.783808
-2.544112
18.360298
40.366544
59.643853
72.952797
79.669575
79.412122
71.399596
59.239680
51.765788
55.075209
66.578143
79.043387
86.193684
82.748301
64.022791
29.109232
-14.997149
-53.280907
-71.035904
-67.378601
-56.884329
-51.128887
-46.868176
-37.941710
-23.867033
-5.443633
14.654352
31.612590
43.716844
51.894097
55.392981
52.583133
46.837286
45.866405
51.222665
56.729903
57.980659
55.314650
50.556793
44.164292
34.395276
21.318003
9.259098
2.091911
-0.787525
-2.089893
-2.233058
0.475355
5.135541
7.447851
5.437908
2.446390
2.980269
7.760445
12.418031
10.445067
-0.239584
-14.051381
-23.503794
-26.710406
-27.690156
-29.896742
-29.801212
-21.342504
-7.170342
3.616012
6.665111
3.811866
-0.128382
-1.455732
-2.472986
-5.393703
-6.221755
-3.076956
-0.182108
-0.273204
-1.469703
-1.243314
-0.985981
-5.066348
-13.758318
-22.236549
-28.019614
-32.954868
-37.812868
-40.190159
-37.970575
-32.345952
-26.986685
-24.959435
-26.063728
-26.016776
-19.282926
-4.932110
11.160780
22.205064
27.309159
29.679816
30.232125
27.258286
20.555635
12.027809
3.377241
-5.222294
-14.666485
-24.915860
-34.204829
-41.345903
-47.207017
-52.912498
-58.652200
-64.856140
-71.743041
-76.696988
-75.124359
-65.893872
-53.886777
-44.992572
-40.464578
-38.924858
-40.994430
-47.460840
-55.154288
-59.107088
-57.985532
-54.043314
-47.903491
-37.638284
-23.881237
-10.726714
-0.496857
7.427369
12.532779
13.207192
11.280007
11.854295
17.834369
28.023160
39.942718
51.118236
58.971933
62.195471
61.018062
55.920198
48.461732
42.499391
41.522828
44.842371
48.868447
52.111613
55.533896
58.385440
58.042018
53.379900
45.780219
37.564379
29.773588
22.630505
18.797185
21.692601
29.461110
36.243841
40.065410
43.484052
46.013682
43.584346
37.068843
32.459141
30.988193
27.972561
21.757662
15.577383
11.126175
7.251445
4.229723
4.338590
8.408727
13.623366
15.084943
10.063565
-0.180028
-13.009594
-26.726043
-39.823853
-49.774490
-54.306213
-53.847470
-51.144784
-48.902808
-48.883343
-51.523996
-55.259560
-57.515076
-56.705392
-52.461040
-44.438903
-33.238265
-22.757038
-17.418925
-16.450975
-15.947221
-14.509238
-12.371659
-10.607505
-12.211416
-17.155364
-20.081050
-16.982808
-8.517349
2.771244
14.346388
24.991077
34.848722
43.482875
49.850549
53.749409
55.835146
56.746487
56.451339
54.564020
51.398490
48.082668
45.763079
45.129808
46.287463
49.240696
54.560967
61.525142
65.753064
63.257711
56.938732
53.741349
56.046149
60.146208
61.354711
57.926325
51.548894
45.239438
40.940941
39.000613
38.584025
38.277287
37.046032
34.550755
31.176727
28.358393
27.179844
26.148794
22.631791
16.343893
9.168591
2.293046
-4.578363
-11.440421
-16.948943
-20.366748
-23.414924
-28.038000
-33.241083
-36.424494
-37.113650
-37.130929
-37.687423
-38.793357
-41.049022
-45.059110
-49.318983
-51.709151
-52.527091
-53.040437
-52.556702
-50.294485
-48.039505
-47.472145
-47.127774
-45.117602
-42.639860
-42.201367
-44.283701
-47.676816
-51.514458
-55.674883
-60.253129
-65.131828
-69.488400
-72.262778
-73.437982
-73.555427
-71.648954
-65.317563
-53.789468
-39.809753
-27.462080
-18.818807
-13.093573
-8.108636
-2.314892
4.268737
10.884057
17.128170
22.832948
27.442040
30.377755
31.999925
33.230067
34.430872
35.874405
38.664930
43.559881
49.226942
53.132399
54.234583
53.818174
53.566983
53.959245
55.265049
58.667021
64.503899
70.534977
74.221292
75.714167
76.353087
75.386132
70.365462
59.714350
43.809119
25.186572
7.862205
-5.490233
-15.703459
-25.059098
-33.196975
-37.003400
-35.070014
-29.850494
-24.854301
-22.163575
-22.512734
-25.090555
-26.912274
-24.372924
-16.462677
-5.414868
6.016654
15.955835
22.695008
25.979282
28.658518
34.065816
42.198670
50.935127
60.304850
71.804373
83.406251
89.903531
88.081920
77.998330
61.183630
39.788195
16.064785
-7.579953
-29.030884
-48.193613
-66.814995
-86.192070
-105.935581
-124.947770
-143.409123
-162.619502
-182.135125
-199.176507
-212.212339
-222.491311
-230.479383
-234.493200
-234.701749
-234.066308
-232.667637
-223.071388
-194.583569
-146.747724
-96.946933
-64.862698
-51.878337
-46.461787
-39.860872
-26.334733
-3.975315
20.248613
40.782138
61.549244
85.230009
108.986150
131.652577
152.246422
166.451231
171.818147
170.753929
166.064368
156.073634
137.409647
116.139055
106.649516
110.637175
112.899765
104.828880
92.247031
79.490034
64.853247
48.438740
32.363532
18.123846
8.136172
3.565820
0.512793
-4.943020
-11.230654
-16.692829
-23.265231
-30.921920
-36.800753
-39.886600
-40.327534
-36.686361
-27.688564
-15.256268
-3.061535
7.226721
14.619751
16.650039
12.575709
4.049879
-7.877901
-21.138654
-31.312025
-36.477729
-39.411083
-42.817507
-47.193666
-53.789534
-63.833531
-75.246251
-83.992469
-86.259661
-78.654802
-60.161026
-34.302368
-7.664117
15.252419
35.484362
55.649738
75.540924
94.469579
112.281853
